ALOSAT 1
1 99997U          16033.50000000 -.00000000  00000-0  00000-0 0 00005
2 99997 045.0363 000.0698 0005345 187.7360 172.2151 15.39232735000018